GLOBALSTAR M035         
1 25851U 99037A   24176.82515493 -.00000121  00000+0 -21482-2 0  9990
2 25851  51.9927 131.9085 0013063 121.9144 271.6042 11.04530856 56778
GLOBALSTAR M032         
1 25852U 99037B   24176.76919671 -.00000007  00000+0  19079-2 0  9991
2 25852  51.9976 341.8947 0009280 285.2485  74.7288 11.19056672 94771
GLOBALSTAR M051         
1 25853U 99037C   24176.47694859 -.00000074  00000+0 -58792-4 0  9990
2 25853  51.9751 183.8178 0001610 291.6502  68.4137 11.42199638 91511
GLOBALSTAR M030         
1 25854U 99037D   24176.69458604 -.00000093  00000+0 -38415-3 0  9991
2 25854  51.9900  12.1313 0004413 122.0553 238.0693 11.55095868108739
GLOBALSTAR M048         
1 25872U 99041A   24176.89449646 -.00000061  00000+0  23634-3 0  9995
2 25872  51.9366 104.0284 0013525 288.7259 102.5556 11.33846937 84452
GLOBALSTAR M026         
1 25873U 99041B   24177.14155503 -.00000079  00000+0 -54923-3 0  9996
2 25873  52.0005 252.9226 0000998  17.9026  11.9558 11.06834368109153
GLOBALSTAR M043         
1 25874U 99041C   24176.51589037 -.00000070  00000+0 -50424-4 0  9994
2 25874  51.9361 198.3181 0011963  60.4440  53.8112 11.25680031 82593
GLOBALSTAR M028         
1 25875U 99041D   24177.20854978 -.00000105  00000+0 -27018-4 0  9993
2 25875  51.9594 177.4923 0063468  16.1797 344.1072 12.50558278145546
